1 68U          19328.56666667  .00000000  00000-0  00000-0 0 00000
2 68 097.6180 191.5560 0000000 000.0000 269.2510 15.01914300000000
1 68U          19328.66388889  .00000000  00000-0  00000-0 0 00000
2 68 097.6180 191.6510 0000000 000.0000 074.2510 15.01914300000000
1 68U          19328.73819444  .00000000  00000-0  00000-0 0 00000
2 68 097.6180 191.7250 0000000 000.0000 115.5010 15.01914300000000
1 68U          19328.83263889  .00000000  00000-0  00000-0 0 00000
2 68 097.6170 191.8180 0000000 000.0000 265.5010 15.01914300000000
1 68U          19328.90138889  .00000000  00000-0  00000-0 0 00000
2 68 097.6170 191.8850 0000000 000.0000 276.7510 15.01914300000000
1 68U          19328.99097222  .00000000  00000-0  00000-0 0 00000
2 68 097.6170 191.9740 0000000 000.0000 040.5010 15.01914300000000
1 68U          19329.04861111  .00000000  00000-0  00000-0 0 00000
2 68 097.6170 192.0310 0000000 000.0000 351.7510 15.01914300000000
1 68U          19329.13333333  .00000000  00000-0  00000-0 0 00000
2 68 097.6170 192.1140 0000000 000.0000 089.2510 15.01914300000000
1 68U          19329.23541667  .00000000  00000-0  00000-0 0 00000
2 68 097.6170 192.2150 0000000 000.0000 280.5010 15.01914300000000
1 68U          19329.29236111  .00000000  00000-0  00000-0 0 00000
2 68 097.6170 192.2710 0000000 000.0000 228.0010 15.01914300000000
1 68U          19329.40277778  .00000000  00000-0  00000-0 0 00000
2 68 097.6160 192.3800 0000000 000.0000 104.2510 15.01914300000000
1 68U          19329.47569444  .00000000  00000-0  00000-0 0 00000
2 68 097.6160 192.4510 0000000 000.0000 138.0010 15.01914300000000
1 68U          19329.58055556  .00000000  00000-0  00000-0 0 00000
2 68 097.6160 192.5550 0000000 000.0000 344.2510 15.01914300000000
1 68U          19329.65625000  .00000000  00000-0  00000-0 0 00000
2 68 097.6160 192.6290 0000000 000.0000 033.0010 15.01914300000000
1 68U          19329.73888889  .00000000  00000-0  00000-0 0 00000
2 68 097.6160 192.7110 0000000 000.0000 119.2510 15.01914300000000
1 68U          19329.82430556  .00000000  00000-0  00000-0 0 00000
2 68 097.6160 192.7950 0000000 000.0000 220.5010 15.01914300000000
1 68U          19329.88750000  .00000000  00000-0  00000-0 0 00000
2 68 097.6150 192.8570 0000000 000.0000 201.7510 15.01914300000000
1 68U          19329.96597222  .00000000  00000-0  00000-0 0 00000
2 68 097.6150 192.9350 0000000 000.0000 265.5010 15.01914300000000
1 68U          19330.07361111  .00000000  00000-0  00000-0 0 00000
2 68 097.6150 193.0410 0000000 000.0000 126.7510 15.01914300000000
1 68U          19330.15763889  .00000000  00000-0  00000-0 0 00000
2 68 097.6150 193.1240 0000000 000.0000 220.5010 15.01914300000000
1 68U          19330.22152778  .00000000  00000-0  00000-0 0 00000
2 68 097.6150 193.1870 0000000 000.0000 205.5010 15.01914300000000
1 68U          19330.31527778  .00000000  00000-0  00000-0 0 00000
2 68 097.6150 193.2790 0000000 000.0000 351.7510 15.01914300000000
1 68U          19330.39166667  .00000000  00000-0  00000-0 0 00000
2 68 097.6150 193.3540 0000000 000.0000 044.2510 15.01914300000000
1 68U          19330.47777778  .00000000  00000-0  00000-0 0 00000
2 68 097.6140 193.4390 0000000 000.0000 149.2510 15.01914300000000
1 68U          19330.57847222  .00000000  00000-0  00000-0 0 00000
2 68 097.6140 193.5380 0000000 000.0000 333.0010 15.01914300000000
1 68U          19330.65486111  .00000000  00000-0  00000-0 0 00000
2 68 097.6140 193.6140 0000000 000.0000 025.5010 15.01914300000000
1 68U          19330.71666667  .00000000  00000-0  00000-0 0 00000
2 68 097.6140 193.6740 0000000 000.0000 359.2510 15.01914300000000
1 68U          19330.82638889  .00000000  00000-0  00000-0 0 00000
2 68 097.6140 193.7830 0000000 000.0000 231.7510 15.01914300000000
1 68U          19330.88611111  .00000000  00000-0  00000-0 0 00000
2 68 097.6140 193.8410 0000000 000.0000 194.2510 15.01914300000000
1 68U          19330.98402778  .00000000  00000-0  00000-0 0 00000
2 68 097.6140 193.9380 0000000 000.0000 003.0000 15.01914300000000
1 68U          19331.07013889  .00000000  00000-0  00000-0 0 00000
2 68 097.6130 194.0230 0000000 000.0000 108.0000 15.01914300000000
1 68U          19331.16597222  .00000000  00000-0  00000-0 0 00000
2 68 097.6130 194.1170 0000000 000.0000 265.5000 15.01914300000000
1 68U          19331.22500000  .00000000  00000-0  00000-0 0 00000
2 68 097.6130 194.1750 0000000 000.0000 224.2500 15.01914300000000
