NORAD_CAT_ID,EPOCH,MEAN_MOTION,ECCENTRICITY,INCLINATION,RA_OF_ASC_NODE,ARG_OF_PERICENTER,MEAN_ANOMALY,SEMIMAJOR_AXIS,PERIOD,APOGEE,PERIGEE
68,2019-11-24 13:36:00,15.019143,0.0,97.618,191.55599999999998,0.0,269.251,6939.130783,95.87799999999999,560.993783,560.993783
68,2019-11-24 15:56:00,15.019143,0.0,97.618,191.65099999999998,0.0,74.251,6939.130783,95.87799999999999,560.993783,560.993783
68,2019-11-24 17:43:00,15.019143,0.0,97.618,191.725,0.0,115.501,6939.130783,95.87799999999999,560.993783,560.993783
68,2019-11-24 19:59:00,15.019143,0.0,97.617,191.81799999999998,0.0,265.501,6939.130783,95.87799999999999,560.993783,560.993783
68,2019-11-24 21:38:00,15.019143,0.0,97.617,191.885,0.0,276.751,6939.130783,95.87799999999999,560.993783,560.993783
68,2019-11-24 23:47:00,15.019143,0.0,97.617,191.97400000000002,0.0,40.501,6939.130783,95.87799999999999,560.993783,560.993783
68,2019-11-25 01:10:00,15.019143,0.0,97.617,192.03099999999998,0.0,351.751,6939.130783,95.87799999999999,560.993783,560.993783
68,2019-11-25 03:12:00,15.019143,0.0,97.617,192.114,0.0,89.251,6939.130783,95.87799999999999,560.993783,560.993783
68,2019-11-25 05:39:00,15.019143,0.0,97.617,192.215,0.0,280.501,6939.130783,95.87799999999999,560.993783,560.993783
68,2019-11-25 07:01:00,15.019143,0.0,97.617,192.271,0.0,228.00099999999998,6939.130783,95.87799999999999,560.993783,560.993783
68,2019-11-25 09:40:00,15.019143,0.0,97.616,192.38,0.0,104.251,6939.130783,95.87799999999999,560.993783,560.993783
68,2019-11-25 11:25:00,15.019143,0.0,97.616,192.451,0.0,138.001,6939.130783,95.87799999999999,560.993783,560.993783
68,2019-11-25 13:56:00,15.019143,0.0,97.616,192.555,0.0,344.251,6939.130783,95.87799999999999,560.993783,560.993783
68,2019-11-25 15:45:00,15.019143,0.0,97.616,192.62900000000002,0.0,33.001,6939.130783,95.87799999999999,560.993783,560.993783
68,2019-11-25 17:44:00,15.019143,0.0,97.616,192.71099999999998,0.0,119.251,6939.130783,95.87799999999999,560.993783,560.993783
68,2019-11-25 19:47:00,15.019143,0.0,97.616,192.795,0.0,220.50099999999998,6939.130783,95.87799999999999,560.993783,560.993783
68,2019-11-25 21:18:00,15.019143,0.0,97.615,192.857,0.0,201.75099999999998,6939.130783,95.87799999999999,560.993783,560.993783
68,2019-11-25 23:11:00,15.019143,0.0,97.615,192.935,0.0,265.501,6939.130783,95.87799999999999,560.993783,560.993783
68,2019-11-26 01:46:00,15.019143,0.0,97.615,193.041,0.0,126.751,6939.130783,95.87799999999999,560.993783,560.993783
68,2019-11-26 03:47:00,15.019143,0.0,97.615,193.12400000000002,0.0,220.50099999999998,6939.130783,95.87799999999999,560.993783,560.993783
68,2019-11-26 05:19:00,15.019143,0.0,97.615,193.187,0.0,205.50099999999998,6939.130783,95.87799999999999,560.993783,560.993783
68,2019-11-26 07:34:00,15.019143,0.0,97.615,193.27900000000002,0.0,351.751,6939.130783,95.87799999999999,560.993783,560.993783
68,2019-11-26 09:24:00,15.019143,0.0,97.615,193.354,0.0,44.251000000000005,6939.130783,95.87799999999999,560.993783,560.993783
68,2019-11-26 11:28:00,15.019143,0.0,97.61399999999999,193.43900000000002,0.0,149.251,6939.130783,95.87799999999999,560.993783,560.993783
68,2019-11-26 13:53:00,15.019143,0.0,97.61399999999999,193.53799999999998,0.0,333.001,6939.130783,95.87799999999999,560.993783,560.993783
68,2019-11-26 15:43:00,15.019143,0.0,97.61399999999999,193.614,0.0,25.500999999999998,6939.130783,95.87799999999999,560.993783,560.993783
68,2019-11-26 17:12:00,15.019143,0.0,97.61399999999999,193.674,0.0,359.251,6939.130783,95.87799999999999,560.993783,560.993783
68,2019-11-26 19:50:00,15.019143,0.0,97.61399999999999,193.783,0.0,231.75099999999998,6939.130783,95.87799999999999,560.993783,560.993783
68,2019-11-26 21:16:00,15.019143,0.0,97.61399999999999,193.84099999999998,0.0,194.25099999999998,6939.130783,95.87799999999999,560.993783,560.993783
68,2019-11-26 23:37:00,15.019143,0.0,97.61399999999999,193.938,0.0,3.0,6939.130783,95.87799999999999,560.993783,560.993783
68,2019-11-27 01:41:00,15.019143,0.0,97.613,194.023,0.0,108.0,6939.130783,95.87799999999999,560.993783,560.993783
68,2019-11-27 03:59:00,15.019143,0.0,97.613,194.11700000000002,0.0,265.5,6939.130783,95.87799999999999,560.993783,560.993783
68,2019-11-27 05:24:00,15.019143,0.0,97.613,194.175,0.0,224.25,6939.130783,95.87799999999999,560.993783,560.993783
